IRIDIUM 171             
1 43929U 19002H   24061.17165534 -.00000057  00000+0 -27284-4 0  9994
2 43929  86.4028 344.0200 0002230  85.0298 275.1152 14.34216144268840
IRIDIUM 170             
1 43930U 19002J   24060.85146251  .00001442  00000+0  22474-3 0  9997
2 43930  86.6151 343.9910 0002683  89.0216 271.1309 14.72271000275913
IRIDIUM 167             
1 43931U 19002K   24061.16531249  .00000029  00000+0  34543-5 0  9990
2 43931  86.4024 343.8244 0002251  85.5727 274.5726 14.34217603268840
IRIDIUM 181             
1 56726U 23068S   24060.90395283  .00000537  00000+0  15274-3 0  9992
2 56726  86.8643  32.3703 0002879  94.4521 265.7009 14.43598220 41510
IRIDIUM 177             
1 56727U 23068T   24060.92738503  .00001863  00000+0  24168-3 0  9996
2 56727  86.2023   6.7466 0002775  92.2009 267.9530 14.80239357 42361
IRIDIUM 174             
1 56728U 23068U   24060.85434843  .00000367  00000+0  44757-4 0  9994
2 56728  86.2026   6.8761 0002396  92.0241 268.1255 14.80197585 42351
IRIDIUM 178             
1 56729U 23068V   24060.91653844  .00001911  00000+0  24821-3 0  9991
2 56729  86.5814  19.1677 0002446  88.9007 271.2494 14.80203051 42360
IRIDIUM 179             
1 56730U 23068W   24060.91111324  .00001952  00000+0  25364-3 0  9993
2 56730  86.6820  21.9380 0002444  91.1672 268.9830 14.80202275 42368
